[{"OBJECT_NAME":"STARLINK-33921","OBJECT_ID":"2025-225AA","EPOCH":"2026-03-09T13:56:27.803904","MEAN_MOTION":15.30175328,"ECCENTRICITY":0.0001065,"INCLINATION":53.1605,"RA_OF_ASC_NODE":166.0259,"ARG_OF_PERICENTER":74.4742,"MEAN_ANOMALY":285.6376,"EPHEMERIS_TYPE":0,"CLASSIFICATION_TYPE":"U","NORAD_CAT_ID":65934,"ELEMENT_SET_NO":999,"REV_AT_EPOCH":2350,"BSTAR":0.00088752,"MEAN_MOTION_DOT":0.00025998,"MEAN_MOTION_DDOT":0},{"OBJECT_NAME":"PEGASUS DEB","OBJECT_ID":"1994-029AG","EPOCH":"2026-03-09T11:16:42.963744","MEAN_MOTION":15.37636263,"ECCENTRICITY":0.0031206,"INCLINATION":82.0362,"RA_OF_ASC_NODE":86.2933,"ARG_OF_PERICENTER":155.6019,"MEAN_ANOMALY":204.671,"EPHEMERIS_TYPE":0,"CLASSIFICATION_TYPE":"U","NORAD_CAT_ID":23986,"ELEMENT_SET_NO":999,"REV_AT_EPOCH":61542,"BSTAR":0.00061808813,"MEAN_MOTION_DOT":0.00023279,"MEAN_MOTION_DDOT":0}]
